OBJECT_NAME,OBJECT_ID,EPOCH,MEAN_MOTION,ECCENTRICITY,INCLINATION,RA_OF_ASC_NODE,ARG_OF_PERICENTER,MEAN_ANOMALY,EPHEMERIS_TYPE,CLASSIFICATION_TYPE,NORAD_CAT_ID,ELEMENT_SET_NO,REV_AT_EPOCH,BSTAR,MEAN_MOTION_DOT,MEAN_MOTION_DDOT
PROBA-1,2001-049B,2026-07-08T04:15:28.461600,15.07592719,.0055974,97.9601,198.4432,52.8841,307.7481,0,U,26958,999,34678,.1762E-3,.2706E-4,0
CUTE-1 (CO-55),2003-031E,2026-07-07T23:18:14.035392,14.24348325,.0010647,98.6738,197.2685,121.3306,238.8916,0,U,27844,999,19463,.10756E-3,.205E-5,0
CUBESAT XI-IV (CO-57),2003-031J,2026-07-07T11:28:11.924256,14.23631593,.00102102,98.6771,196.4779,139.6848,220.5090,0,U,27848,999,19426,.1045566E-3,.195E-5,0
APRIZESAT 4,2009-041D,2026-07-07T18:08:48.845760,14.83907056,.0041931,98.1405,264.4862,254.3409,105.3176,0,U,35684,999,91441,.71454E-4,.543E-5,0
APRIZESAT 3,2009-041F,2026-07-07T23:07:25.275936,14.96294757,.006135,98.2084,343.1857,359.6667,0.4501,0,U,35686,999,91948,.97724E-4,.1077E-4,0
PROBA-2,2009-059B,2026-07-07T22:36:17.807328,14.54871393,.0012511,98.2457,12.0075,211.9031,148.1410,0,U,36037,999,88454,.4318E-4,.14E-5,0
APRIZESAT 5,2011-044E,2026-07-07T17:56:27.513024,14.81118847,.0050872,98.2450,122.3713,297.3312,62.2726,0,U,37792,999,80183,.10674E-3,.787E-5,0
APRIZESAT 6,2011-044F,2026-07-08T00:20:28.207104,14.76949102,.0043635,98.2346,99.9378,21.0805,44.4550,0,U,37793,999,80022,.88858E-4,.579E-5,0
PROBA-V,2013-021A,2026-07-07T22:09:42.072768,14.23602382,.0005411,98.3599,166.5076,76.5324,283.6458,0,U,39159,999,68406,.52435E-4,.78E-6,0
APRIZESAT 7,2013-066A,2026-07-07T19:35:00.655584,14.91608303,.0036733,97.7717,141.7407,141.0059,219.3819,0,U,39416,999,68430,.11693E-3,.1131E-4,0
APRIZESAT 8,2013-066K,2026-07-07T20:35:07.350144,14.87688426,.0044894,97.8227,136.0385,216.3775,143.4388,0,U,39425,999,68274,.72296E-4,.613E-5,0
BUGSAT-1 (TITA),2014-033E,2026-07-08T05:28:07.508352,15.15830335,.0029145,98.0426,283.0109,108.6453,251.7946,0,U,40014,999,65902,.18144E-3,.3428E-4,0
SAUDISAT 4,2014-033G,2026-07-07T22:45:53.741952,14.79570198,.0044888,97.7609,334.3681,7.7247,352.4646,0,U,40016,999,64914,.62121E-4,.42E-5,0
APRIZESAT 9,2014-033J,2026-07-07T21:49:03.818208,14.74245611,.0067164,97.9086,321.6039,132.9206,227.7666,0,U,40018,999,64661,.89768E-4,.563E-5,0
APRIZESAT 10,2014-033K,2026-07-07T20:59:56.692608,14.70904719,.0078159,97.9674,315.3758,206.8250,152.8905,0,U,40019,999,64529,.78879E-4,.453E-5,0
TECHDEMOSAT-1 (TDS-1),2014-037H,2026-07-07T23:38:11.789088,15.13612681,.0006207,98.3826,183.2641,181.2324,178.8891,0,U,40076,999,65137,.24958E-3,.4405E-4,0
TECHNOSAT,2017-042E,2026-07-07T22:14:06.047232,15.05078294,.0018061,97.4300,345.7984,26.8835,333.3324,0,U,42829,999,48982,.17718E-3,.2468E-4,0
FLYING LAPTOP,2017-042G,2026-07-08T04:21:42.654816,15.01281935,.0019926,97.4784,343.9199,54.6204,305.6879,0,U,42831,999,48960,.19415E-3,.2449E-4,0
HAWK-A,2018-099H,2026-07-07T22:54:47.553120,15.24901320,.0033969,97.3902,240.9215,209.7065,150.2244,0,U,43765,999,41626,.17197E-3,.4273E-4,0
HAWK-B,2018-099AN,2026-07-08T03:10:50.338848,15.23060953,.0030744,97.3948,240.4678,227.5002,132.3637,0,U,43794,999,41622,.14134E-3,.3299E-4,0
HAWK-C,2018-099AT,2026-07-08T01:55:45.130080,15.28414144,.0039631,97.3879,242.0611,209.1600,150.7428,0,U,43799,999,41710,.17516E-3,.488E-4,0
SALSAT,2020-068K,2026-07-07T22:39:07.910784,15.30102262,.000847,97.8859,193.2762,220.3352,139.7260,0,U,46495,999,31853,.15694E-3,.449E-4,0
HAWK-2C,2021-006CT,2026-07-08T01:56:23.267040,15.34927271,.0008506,97.2270,232.9754,121.2853,238.9225,0,U,47502,999,30270,.12147E-3,.404E-4,0
HAWK-2A,2021-006CW,2026-07-08T01:59:41.440128,15.34941410,.0007979,97.2311,233.6677,124.2191,235.9810,0,U,47505,999,30270,.12126E-3,.4034E-4,0
HAWK-2B,2021-006CZ,2026-07-07T16:28:00.217632,15.35062896,.0008544,97.2181,231.5774,124.0470,236.1586,0,U,47508,999,30264,.15236E-3,.511E-4,0
HAWK-3B,2021-059BE,2026-07-06T12:06:19.954368,15.71268243,.00037585,97.6647,26.0618,231.7433,128.3491,0,U,48931,999,28088,.28562891E-3,.36099E-3,0
HAWK-3C,2021-059BX,2026-07-08T00:46:46.619328,15.71364794,.0004027,97.6767,33.4604,227.7372,132.3549,0,U,48948,999,28112,.23604E-3,.29909E-3,0
HAWK-3A,2021-059CG,2026-07-07T00:19:22.130112,15.71296947,.00038868,97.6708,29.5295,234.0895,126.0006,0,U,48957,999,28096,.28767336E-3,.36405E-3,0
HAWK-5C,2022-057Y,2026-07-08T04:41:11.269248,15.52144633,.0003493,97.6615,350.2315,13.3504,346.7839,0,U,52754,999,22960,.19325E-3,.11586E-3,0
HAWK-5B,2022-057AA,2026-07-07T22:29:34.097280,15.52142990,.0004123,97.6631,348.3083,1.4083,358.7180,0,U,52756,999,22956,.18627E-3,.11163E-3,0
HAWK-5A,2022-057AB,2026-07-07T22:29:17.287296,15.52142714,.0004038,97.6626,349.1391,6.4981,353.6323,0,U,52757,999,22956,.1869E-3,.11201E-3,0
