PROBA-1                 
1 26958U 01049B   26189.17741275  .00002706  00000+0  17620-3 0  9997
2 26958  97.9601 198.4432 0055974  52.8841 307.7481 15.07592719346787
CUTE-1 (CO-55)          
1 27844U 03031E   26188.97099578  .00000205  00000+0  10756-3 0  9999
2 27844  98.6738 197.2685 0010647 121.3306 238.8916 14.24348325194636
CUBESAT XI-IV (CO-57)   
1 27848U 03031J   26188.47791579  .00000195  00000+0  10456-3 0  9993
2 27848  98.6771 196.4779 0010210 139.6848 220.5090 14.23631593194262
APRIZESAT 4             
1 35684U 09041D   26188.75612090  .00000543  00000+0  71454-4 0  9991
2 35684  98.1405 264.4862 0041931 254.3409 105.3176 14.83907056914417
APRIZESAT 3             
1 35686U 09041F   26188.96348699  .00001077  00000+0  97724-4 0  9998
2 35686  98.2084 343.1857 0061350 359.6667   0.4501 14.96294757919484
PROBA-2                 
1 36037U 09059B   26188.94187277  .00000140  00000+0  43180-4 0  9996
2 36037  98.2457  12.0075 0012511 211.9031 148.1410 14.54871393884541
APRIZESAT 5             
1 37792U 11044E   26188.74754066  .00000787  00000+0  10674-3 0  9994
2 37792  98.2450 122.3713 0050872 297.3312  62.2726 14.81118847801834
APRIZESAT 6             
1 37793U 11044F   26189.01421536  .00000579  00000+0  88858-4 0  9998
2 37793  98.2346  99.9378 0043635  21.0805  44.4550 14.76949102800222
PROBA-V                 
1 39159U 13021A   26188.92340362  .00000078  00000+0  52435-4 0  9995
2 39159  98.3599 166.5076 0005411  76.5324 283.6458 14.23602382684062
APRIZESAT 7             
1 39416U 13066A   26188.81597981  .00001131  00000+0  11693-3 0  9990
2 39416  97.7717 141.7407 0036733 141.0059 219.3819 14.91608303684308
APRIZESAT 8             
1 39425U 13066K   26188.85772396  .00000613  00000+0  72296-4 0  9990
2 39425  97.8227 136.0385 0044894 216.3775 143.4388 14.87688426682748
BUGSAT-1 (TITA)         
1 40014U 14033E   26189.22786468  .00003428  00000+0  18144-3 0  9996
2 40014  98.0426 283.0109 0029145 108.6453 251.7946 15.15830335659021
SAUDISAT 4              
1 40016U 14033G   26188.94853868  .00000420  00000+0  62121-4 0  9999
2 40016  97.7609 334.3681 0044888   7.7247 352.4646 14.79570198649143
APRIZESAT 9             
1 40018U 14033J   26188.90907197  .00000563  00000+0  89768-4 0  9996
2 40018  97.9086 321.6039 0067164 132.9206 227.7666 14.74245611646619
APRIZESAT 10            
1 40019U 14033K   26188.87496172  .00000453  00000+0  78879-4 0  9998
2 40019  97.9674 315.3758 0078159 206.8250 152.8905 14.70904719645291
TECHDEMOSAT-1 (TDS-1)   
1 40076U 14037H   26188.98485867  .00004405  00000+0  24958-3 0  9995
2 40076  98.3826 183.2641 0006207 181.2324 178.8891 15.13612681651374
TECHNOSAT               
1 42829U 17042E   26188.92645888  .00002468  00000+0  17718-3 0  9990
2 42829  97.4300 345.7984 0018061  26.8835 333.3324 15.05078294489821
FLYING LAPTOP           
1 42831U 17042G   26189.18174369  .00002449  00000+0  19415-3 0  9998
2 42831  97.4784 343.9199 0019926  54.6204 305.6879 15.01281935489605
HAWK-A                  
1 43765U 18099H   26188.95471705  .00004273  00000+0  17197-3 0  9998
2 43765  97.3902 240.9215 0033969 209.7065 150.2244 15.24901320416263
HAWK-B                  
1 43794U 18099AN  26189.13252707  .00003299  00000+0  14134-3 0  9995
2 43794  97.3948 240.4678 0030744 227.5002 132.3637 15.23060953416220
HAWK-C                  
1 43799U 18099AT  26189.08038345  .00004880  00000+0  17516-3 0  9998
2 43799  97.3879 242.0611 0039631 209.1600 150.7428 15.28414144417107
SALSAT                  
1 46495U 20068K   26188.94384156  .00004490  00000+0  15694-3 0  9993
2 46495  97.8859 193.2762 0008470 220.3352 139.7260 15.30102262318532
HAWK-2C                 
1 47502U 21006CT  26189.08082485  .00004040  00000+0  12147-3 0  9993
2 47502  97.2270 232.9754 0008506 121.2853 238.9225 15.34927271302704
HAWK-2A                 
1 47505U 21006CW  26189.08311852  .00004034  00000+0  12126-3 0  9999
2 47505  97.2311 233.6677 0007979 124.2191 235.9810 15.34941410302704
HAWK-2B                 
1 47508U 21006CZ  26188.68611363  .00005110  00000+0  15236-3 0  9998
2 47508  97.2181 231.5774 0008544 124.0470 236.1586 15.35062896302643
HAWK-3B                 
1 48931U 21059BE  26187.50439762  .00036099  00000+0  28563-3 0  9995
2 48931  97.6647  26.0618 0003758 231.7433 128.3491 15.71268243280888
HAWK-3C                 
1 48948U 21059BX  26189.03248402  .00029909  00000+0  23604-3 0  9995
2 48948  97.6767  33.4604 0004027 227.7372 132.3549 15.71364794281128
HAWK-3A                 
1 48957U 21059CG  26188.01345058  .00036405  00000+0  28767-3 0  9991
2 48957  97.6708  29.5295 0003886 234.0895 126.0006 15.71296947280961
HAWK-5C                 
1 52754U 22057Y   26189.19526932  .00011586  00000+0  19325-3 0  9995
2 52754  97.6615 350.2315 0003493  13.3504 346.7839 15.52144633229606
HAWK-5B                 
1 52756U 22057AA  26188.93720020  .00011163  00000+0  18627-3 0  9997
2 52756  97.6631 348.3083 0004123   1.4083 358.7180 15.52142990229568
HAWK-5A                 
1 52757U 22057AB  26188.93700564  .00011201  00000+0  18690-3 0  9992
2 52757  97.6626 349.1391 0004038   6.4981 353.6323 15.52142714229568
